{"type":"FeatureCollection","features":[{"type":"Feature","properties":{"biome":"Deep Wood","kind":"deep","scale":1.12,"seed":1680155008},"geometry":{"type":"Point","coordinates":[-46.423534,-5.053035]}},{"type":"Feature","properties":{"biome":"Deep Wood","kind":"deep","scale":1.12,"seed":1414003662},"geometry":{"type":"Point","coordinates":[-4.399713,45.273896]}},{"type":"Feature","properties":{"biome":"Deep Wood","kind":"deep","scale":1.12,"seed":688302861},"geometry":{"type":"Point","coordinates":[-9.383635,46.803429]}},{"type":"Feature","properties":{"biome":"Deep Wood","kind":"deep","scale":1.12,"seed":1090188897},"geometry":{"type":"Point","coordinates":[-0.265276,44.818801]}},{"type":"Feature","properties":{"biome":"Deep Wood","kind":"deep","scale":1.12,"seed":1151770004},"geometry":{"type":"Point","coordinates":[-40.037482,-4.133149]}},{"type":"Feature","properties":{"biome":"Deep Wood","kind":"deep","scale":1.12,"seed":79339025},"geometry":{"type":"Point","coordinates":[-44.091391,-4.285651]}},{"type":"Feature","properties":{"biome":"Deep Wood","kind":"deep","scale":1.12,"seed":890152913},"geometry":{"type":"Point","coordinates":[-48.689451,-4.380831]}},{"type":"Feature","properties":{"biome":"Deep Wood","kind":"deep","scale":1.12,"seed":1414728476},"geometry":{"type":"Point","coordinates":[-50.29626,-6.231836]}},{"type":"Feature","properties":{"biome":"Deep Wood","kind":"deep","scale":1.12,"seed":1182051371},"geometry":{"type":"Point","coordinates":[-46.927866,-3.552748]}},{"type":"Feature","properties":{"biome":"Deep Wood","kind":"deep","scale":1.12,"seed":1205495291},"geometry":{"type":"Point","coordinates":[-1.132378,43.548689]}},{"type":"Feature","properties":{"biome":"Deep Wood","kind":"deep","scale":1.12,"seed":1039249714},"geometry":{"type":"Point","coordinates":[-6.851047,45.316886]}},{"type":"Feature","properties":{"biome":"Deep Wood","kind":"deep","scale":1.12,"seed":1831099675},"geometry":{"type":"Point","coordinates":[-41.924542,-3.925518]}},{"type":"Feature","properties":{"biome":"Deep Wood","kind":"deep","scale":1.12,"seed":1780432834},"geometry":{"type":"Point","coordinates":[-2.977429,44.304758]}},{"type":"Feature","properties":{"biome":"Deep Wood","kind":"deep","scale":1.12,"seed":314571005},"geometry":{"type":"Point","coordinates":[-1.958081,45.106239]}},{"type":"Feature","properties":{"biome":"Deep Wood","kind":"deep","scale":1.12,"seed":1076607829},"geometry":{"type":"Point","coordinates":[-8.346185,47.89962]}},{"type":"Feature","properties":{"biome":"Deep Wood","kind":"deep","scale":1.12,"seed":1443953411},"geometry":{"type":"Point","coordinates":[-41.517427,-2.665015]}},{"type":"Feature","properties":{"biome":"Deep Wood","kind":"deep","scale":1.12,"seed":462288222},"geometry":{"type":"Point","coordinates":[-44.659751,-2.610518]}},{"type":"Feature","properties":{"biome":"Deep Wood","kind":"deep","scale":1.12,"seed":709575603},"geometry":{"type":"Point","coordinates":[-45.366874,-3.872496]}},{"type":"Feature","properties":{"biome":"Deep Wood","kind":"deep","scale":1.12,"seed":230627387},"geometry":{"type":"Point","coordinates":[-48.930152,-6.33526]}},{"type":"Feature","properties":{"biome":"Deep Wood","kind":"deep","scale":1.12,"seed":486628026},"geometry":{"type":"Point","coordinates":[1.187502,44.770433]}},{"type":"Feature","properties":{"biome":"Deep Wood","kind":"deep","scale":1.12,"seed":891378797},"geometry":{"type":"Point","coordinates":[-5.583318,44.930376]}},{"type":"Feature","properties":{"biome":"Deep Wood","kind":"deep","scale":1.12,"seed":1836614243},"geometry":{"type":"Point","coordinates":[-9.56402,48.354814]}},{"type":"Feature","properties":{"biome":"Deep Wood","kind":"deep","scale":1.12,"seed":1573944859},"geometry":{"type":"Point","coordinates":[-8.07924,45.151919]}},{"type":"Feature","properties":{"biome":"Deep Wood","kind":"deep","scale":1.12,"seed":1281937910},"geometry":{"type":"Point","coordinates":[-38.482412,-4.207951]}},{"type":"Feature","properties":{"biome":"Deep Wood","kind":"deep","scale":1.12,"seed":484093537},"geometry":{"type":"Point","coordinates":[-7.244817,46.67094]}},{"type":"Feature","properties":{"biome":"Deep Wood","kind":"deep","scale":1.12,"seed":1623080269},"geometry":{"type":"Point","coordinates":[-4.607666,43.852744]}},{"type":"Feature","properties":{"biome":"Deep Wood","kind":"deep","scale":1.12,"seed":1565604410},"geometry":{"type":"Point","coordinates":[-43.153056,-2.810919]}},{"type":"Feature","properties":{"biome":"Deep Wood","kind":"deep","scale":1.12,"seed":1836299550},"geometry":{"type":"Point","coordinates":[-47.760488,-5.793141]}},{"type":"Feature","properties":{"biome":"Deep Wood","kind":"deep","scale":1.12,"seed":87461771},"geometry":{"type":"Point","coordinates":[-10.483715,47.2988]}},{"type":"Feature","properties":{"biome":"Taiga","kind":"conifer","scale":1.0,"seed":128525356},"geometry":{"type":"Point","coordinates":[42.407627,-45.639224]}},{"type":"Feature","properties":{"biome":"Taiga","kind":"conifer","scale":1.0,"seed":6033447},"geometry":{"type":"Point","coordinates":[22.298681,32.959749]}},{"type":"Feature","properties":{"biome":"Taiga","kind":"conifer","scale":1.0,"seed":1584864126},"geometry":{"type":"Point","coordinates":[23.550134,-47.576465]}},{"type":"Feature","properties":{"biome":"Taiga","kind":"conifer","scale":1.0,"seed":1386694742},"geometry":{"type":"Point","coordinates":[-18.75847,45.007366]}},{"type":"Feature","properties":{"biome":"Taiga","kind":"conifer","scale":1.0,"seed":1058713925},"geometry":{"type":"Point","coordinates":[-7.322871,42.833353]}},{"type":"Feature","properties":{"biome":"Taiga","kind":"conifer","scale":1.0,"seed":1667161106},"geometry":{"type":"Point","coordinates":[-10.366328,41.208256]}},{"type":"Feature","properties":{"biome":"Taiga","kind":"conifer","scale":1.0,"seed":1003632891},"geometry":{"type":"Point","coordinates":[-19.952116,43.991656]}},{"type":"Feature","properties":{"biome":"Taiga","kind":"conifer","scale":1.0,"seed":536031057},"geometry":{"type":"Point","coordinates":[-4.938219,41.496248]}},{"type":"Feature","properties":{"biome":"Taiga","kind":"conifer","scale":1.0,"seed":85537480},"geometry":{"type":"Point","coordinates":[-16.479225,36.00149]}},{"type":"Feature","properties":{"biome":"Taiga","kind":"conifer","scale":1.0,"seed":188739965},"geometry":{"type":"Point","coordinates":[-68.756769,42.285829]}},{"type":"Feature","properties":{"biome":"Taiga","kind":"conifer","scale":1.0,"seed":1307723423},"geometry":{"type":"Point","coordinates":[36.249053,-48.44548]}},{"type":"Feature","properties":{"biome":"Taiga","kind":"conifer","scale":1.0,"seed":446820912},"geometry":{"type":"Point","coordinates":[25.014477,17.232001]}},{"type":"Feature","properties":{"biome":"Taiga","kind":"conifer","scale":1.0,"seed":870932230},"geometry":{"type":"Point","coordinates":[15.178837,32.475744]}},{"type":"Feature","properties":{"biome":"Taiga","kind":"conifer","scale":1.0,"seed":129875317},"geometry":{"type":"Point","coordinates":[39.971183,-46.598174]}},{"type":"Feature","properties":{"biome":"Taiga","kind":"conifer","scale":1.0,"seed":947591428},"geometry":{"type":"Point","coordinates":[-20.463537,-30.300171]}},{"type":"Feature","properties":{"biome":"Taiga","kind":"conifer","scale":1.0,"seed":789186497},"geometry":{"type":"Point","coordinates":[41.353338,-49.912058]}},{"type":"Feature","properties":{"biome":"Taiga","kind":"conifer","scale":1.0,"seed":1697034162},"geometry":{"type":"Point","coordinates":[32.572384,-49.768879]}},{"type":"Feature","properties":{"biome":"Taiga","kind":"conifer","scale":1.0,"seed":537451805},"geometry":{"type":"Point","coordinates":[26.195166,32.609224]}},{"type":"Feature","properties":{"biome":"Taiga","kind":"conifer","scale":1.0,"seed":940085178},"geometry":{"type":"Point","coordinates":[-12.794517,42.370214]}},{"type":"Feature","properties":{"biome":"Taiga","kind":"conifer","scale":1.0,"seed":1147181642},"geometry":{"type":"Point","coordinates":[32.962391,-48.252598]}},{"type":"Feature","properties":{"biome":"Taiga","kind":"conifer","scale":1.0,"seed":1085406124},"geometry":{"type":"Point","coordinates":[30.745909,-47.412653]}},{"type":"Feature","properties":{"biome":"Taiga","kind":"conifer","scale":1.0,"seed":121988340},"geometry":{"type":"Point","coordinates":[38.098444,-49.153329]}},{"type":"Feature","properties":{"biome":"Taiga","kind":"conifer","scale":1.0,"seed":1181153042},"geometry":{"type":"Point","coordinates":[-19.204745,-30.410778]}},{"type":"Feature","properties":{"biome":"Taiga","kind":"conifer","scale":1.0,"seed":296061410},"geometry":{"type":"Point","coordinates":[-19.042132,42.668613]}},{"type":"Feature","properties":{"biome":"Taiga","kind":"conifer","scale":1.0,"seed":701665838},"geometry":{"type":"Point","coordinates":[22.767069,-49.944159]}},{"type":"Feature","properties":{"biome":"Taiga","kind":"conifer","scale":1.0,"seed":250869445},"geometry":{"type":"Point","coordinates":[37.504316,49.515002]}},{"type":"Feature","properties":{"biome":"Taiga","kind":"conifer","scale":1.0,"seed":132428976},"geometry":{"type":"Point","coordinates":[-60.167882,23.398097]}},{"type":"Feature","properties":{"biome":"Taiga","kind":"conifer","scale":1.0,"seed":199691372},"geometry":{"type":"Point","coordinates":[27.686354,17.068063]}},{"type":"Feature","properties":{"biome":"Taiga","kind":"conifer","scale":1.0,"seed":629629998},"geometry":{"type":"Point","coordinates":[21.924474,18.763952]}},{"type":"Feature","properties":{"biome":"Taiga","kind":"conifer","scale":1.0,"seed":1051073678},"geometry":{"type":"Point","coordinates":[27.719543,15.331353]}},{"type":"Feature","properties":{"biome":"Taiga","kind":"conifer","scale":1.0,"seed":1135105395},"geometry":{"type":"Point","coordinates":[24.508014,-48.947972]}},{"type":"Feature","properties":{"biome":"Taiga","kind":"conifer","scale":1.0,"seed":134134485},"geometry":{"type":"Point","coordinates":[-12.398097,40.69174]}},{"type":"Feature","properties":{"biome":"Taiga","kind":"conifer","scale":1.0,"seed":1891082634},"geometry":{"type":"Point","coordinates":[22.736054,17.4447]}},{"type":"Feature","properties":{"biome":"Taiga","kind":"conifer","scale":1.0,"seed":1835531572},"geometry":{"type":"Point","coordinates":[36.089276,-46.715209]}},{"type":"Feature","properties":{"biome":"Taiga","kind":"conifer","scale":1.0,"seed":719578921},"geometry":{"type":"Point","coordinates":[-54.45869,-48.987069]}},{"type":"Feature","properties":{"biome":"Taiga","kind":"conifer","scale":1.0,"seed":900750698},"geometry":{"type":"Point","coordinates":[44.283019,-44.275125]}},{"type":"Feature","properties":{"biome":"Taiga","kind":"conifer","scale":1.0,"seed":169891685},"geometry":{"type":"Point","coordinates":[40.619012,-48.874349]}},{"type":"Feature","properties":{"biome":"Taiga","kind":"conifer","scale":1.0,"seed":1800938050},"geometry":{"type":"Point","coordinates":[-53.706744,-47.532636]}},{"type":"Feature","properties":{"biome":"Taiga","kind":"conifer","scale":1.0,"seed":1747043391},"geometry":{"type":"Point","coordinates":[-2.420316,-30.714735]}},{"type":"Feature","properties":{"biome":"Taiga","kind":"conifer","scale":1.0,"seed":672777465},"geometry":{"type":"Point","coordinates":[45.668999,45.996645]}},{"type":"Feature","properties":{"biome":"Taiga","kind":"conifer","scale":1.0,"seed":286568412},"geometry":{"type":"Point","coordinates":[-47.009842,-49.298036]}},{"type":"Feature","properties":{"biome":"Taiga","kind":"conifer","scale":1.0,"seed":784388766},"geometry":{"type":"Point","coordinates":[-13.987794,36.160643]}},{"type":"Feature","properties":{"biome":"Taiga","kind":"conifer","scale":1.0,"seed":742863844},"geometry":{"type":"Point","coordinates":[45.337633,-45.492497]}},{"type":"Feature","properties":{"biome":"Taiga","kind":"conifer","scale":1.0,"seed":651730169},"geometry":{"type":"Point","coordinates":[-8.030643,44.089656]}},{"type":"Feature","properties":{"biome":"Taiga","kind":"conifer","scale":1.0,"seed":1386424879},"geometry":{"type":"Point","coordinates":[31.628552,-48.291363]}},{"type":"Feature","properties":{"biome":"Taiga","kind":"conifer","scale":1.0,"seed":1221640513},"geometry":{"type":"Point","coordinates":[-12.333125,36.077135]}},{"type":"Feature","properties":{"biome":"Taiga","kind":"conifer","scale":1.0,"seed":342031563},"geometry":{"type":"Point","coordinates":[21.218627,31.68951]}},{"type":"Feature","properties":{"biome":"Taiga","kind":"conifer","scale":1.0,"seed":603007506},"geometry":{"type":"Point","coordinates":[50.593745,45.769983]}},{"type":"Feature","properties":{"biome":"Taiga","kind":"conifer","scale":1.0,"seed":1285315029},"geometry":{"type":"Point","coordinates":[-5.967325,43.450217]}},{"type":"Feature","properties":{"biome":"Taiga","kind":"conifer","scale":1.0,"seed":1189945563},"geometry":{"type":"Point","coordinates":[-9.44877,42.386722]}},{"type":"Feature","properties":{"biome":"Taiga","kind":"conifer","scale":1.0,"seed":983348046},"geometry":{"type":"Point","coordinates":[41.685545,-47.761978]}},{"type":"Feature","properties":{"biome":"Taiga","kind":"conifer","scale":1.0,"seed":1632644852},"geometry":{"type":"Point","coordinates":[27.448015,32.71706]}},{"type":"Feature","properties":{"biome":"Taiga","kind":"conifer","scale":1.0,"seed":282401709},"geometry":{"type":"Point","coordinates":[-13.499594,44.009322]}},{"type":"Feature","properties":{"biome":"Taiga","kind":"conifer","scale":1.0,"seed":610986936},"geometry":{"type":"Point","coordinates":[-16.716318,41.190678]}},{"type":"Feature","properties":{"biome":"Taiga","kind":"conifer","scale":1.0,"seed":1977263102},"geometry":{"type":"Point","coordinates":[-63.179134,41.233124]}},{"type":"Feature","properties":{"biome":"Taiga","kind":"conifer","scale":1.0,"seed":570625135},"geometry":{"type":"Point","coordinates":[0.668369,-40.117552]}},{"type":"Feature","properties":{"biome":"Taiga","kind":"conifer","scale":1.0,"seed":1021035290},"geometry":{"type":"Point","coordinates":[20.410565,25.033615]}},{"type":"Feature","properties":{"biome":"Taiga","kind":"conifer","scale":1.0,"seed":1312315339},"geometry":{"type":"Point","coordinates":[49.119236,47.184147]}},{"type":"Feature","properties":{"biome":"Taiga","kind":"conifer","scale":1.0,"seed":181381474},"geometry":{"type":"Point","coordinates":[48.44177,-43.939456]}},{"type":"Feature","properties":{"biome":"Taiga","kind":"conifer","scale":1.0,"seed":18911080},"geometry":{"type":"Point","coordinates":[29.991019,17.672469]}},{"type":"Feature","properties":{"biome":"Taiga","kind":"conifer","scale":1.0,"seed":1158315887},"geometry":{"type":"Point","coordinates":[44.332574,49.749418]}},{"type":"Feature","properties":{"biome":"Taiga","kind":"conifer","scale":1.0,"seed":1875662426},"geometry":{"type":"Point","coordinates":[33.635366,-46.233158]}},{"type":"Feature","properties":{"biome":"Taiga","kind":"conifer","scale":1.0,"seed":1322739480},"geometry":{"type":"Point","coordinates":[-61.602183,-36.490159]}},{"type":"Feature","properties":{"biome":"Taiga","kind":"conifer","scale":1.0,"seed":1590063029},"geometry":{"type":"Point","coordinates":[21.13464,26.324965]}},{"type":"Feature","properties":{"biome":"Taiga","kind":"conifer","scale":1.0,"seed":1071210791},"geometry":{"type":"Point","coordinates":[19.842722,19.640011]}},{"type":"Feature","properties":{"biome":"Taiga","kind":"conifer","scale":1.0,"seed":1664607412},"geometry":{"type":"Point","coordinates":[34.812357,-47.728017]}},{"type":"Feature","properties":{"biome":"Taiga","kind":"conifer","scale":1.0,"seed":626613199},"geometry":{"type":"Point","coordinates":[42.036401,46.042883]}},{"type":"Feature","properties":{"biome":"Taiga","kind":"conifer","scale":1.0,"seed":1224019671},"geometry":{"type":"Point","coordinates":[28.181545,19.833836]}},{"type":"Feature","properties":{"biome":"Taiga","kind":"conifer","scale":1.0,"seed":1722505742},"geometry":{"type":"Point","coordinates":[3.885562,-36.302776]}},{"type":"Feature","properties":{"biome":"Taiga","kind":"conifer","scale":1.0,"seed":1782233765},"geometry":{"type":"Point","coordinates":[25.081258,11.201812]}},{"type":"Feature","properties":{"biome":"Taiga","kind":"conifer","scale":1.0,"seed":1123014152},"geometry":{"type":"Point","coordinates":[-15.893955,42.910223]}},{"type":"Feature","properties":{"biome":"Taiga","kind":"conifer","scale":1.0,"seed":844075978},"geometry":{"type":"Point","coordinates":[-12.662071,-31.455304]}},{"type":"Feature","properties":{"biome":"Taiga","kind":"conifer","scale":1.0,"seed":646730668},"geometry":{"type":"Point","coordinates":[19.859541,18.206791]}},{"type":"Feature","properties":{"biome":"Taiga","kind":"conifer","scale":1.0,"seed":1229800009},"geometry":{"type":"Point","coordinates":[28.498269,-48.45288]}},{"type":"Feature","properties":{"biome":"Taiga","kind":"conifer","scale":1.0,"seed":1923862445},"geometry":{"type":"Point","coordinates":[27.911319,31.584729]}},{"type":"Feature","properties":{"biome":"Taiga","kind":"conifer","scale":1.0,"seed":1231024172},"geometry":{"type":"Point","coordinates":[25.98899,31.333566]}},{"type":"Feature","properties":{"biome":"Taiga","kind":"conifer","scale":1.0,"seed":1282779863},"geometry":{"type":"Point","coordinates":[1.993833,-34.462858]}},{"type":"Feature","properties":{"biome":"Taiga","kind":"conifer","scale":1.0,"seed":147165482},"geometry":{"type":"Point","coordinates":[22.912745,-46.265679]}},{"type":"Feature","properties":{"biome":"Taiga","kind":"conifer","scale":1.0,"seed":822600991},"geometry":{"type":"Point","coordinates":[-14.939647,44.173923]}},{"type":"Feature","properties":{"biome":"Taiga","kind":"conifer","scale":1.0,"seed":1497490505},"geometry":{"type":"Point","coordinates":[20.043169,29.863695]}},{"type":"Feature","properties":{"biome":"Temperate rainforest","kind":"broadleaf","scale":1.05,"seed":816758272},"geometry":{"type":"Point","coordinates":[-71.470465,-40.621635]}},{"type":"Feature","properties":{"biome":"Temperate rainforest","kind":"broadleaf","scale":1.05,"seed":692488591},"geometry":{"type":"Point","coordinates":[-76.657968,-14.700125]}},{"type":"Feature","properties":{"biome":"Temperate rainforest","kind":"broadleaf","scale":1.05,"seed":492354285},"geometry":{"type":"Point","coordinates":[-69.636401,-25.548592]}},{"type":"Feature","properties":{"biome":"Temperate rainforest","kind":"broadleaf","scale":1.05,"seed":1827470929},"geometry":{"type":"Point","coordinates":[-61.371463,-31.381922]}},{"type":"Feature","properties":{"biome":"Temperate rainforest","kind":"broadleaf","scale":1.05,"seed":1347943829},"geometry":{"type":"Point","coordinates":[-66.205918,-37.350448]}},{"type":"Feature","properties":{"biome":"Temperate rainforest","kind":"broadleaf","scale":1.05,"seed":781633901},"geometry":{"type":"Point","coordinates":[49.62073,-39.548953]}},{"type":"Feature","properties":{"biome":"Temperate rainforest","kind":"broadleaf","scale":1.05,"seed":1366014023},"geometry":{"type":"Point","coordinates":[-80.723873,-9.762056]}},{"type":"Feature","properties":{"biome":"Temperate rainforest","kind":"broadleaf","scale":1.05,"seed":882883577},"geometry":{"type":"Point","coordinates":[-69.06087,-29.709936]}},{"type":"Feature","properties":{"biome":"Temperate rainforest","kind":"broadleaf","scale":1.05,"seed":363993204},"geometry":{"type":"Point","coordinates":[-78.075061,-38.744002]}},{"type":"Feature","properties":{"biome":"Temperate rainforest","kind":"broadleaf","scale":1.05,"seed":616214093},"geometry":{"type":"Point","coordinates":[-61.669656,-21.45027]}},{"type":"Feature","properties":{"biome":"Temperate rainforest","kind":"broadleaf","scale":1.05,"seed":1542850037},"geometry":{"type":"Point","coordinates":[-73.644374,-26.076015]}},{"type":"Feature","properties":{"biome":"Temperate rainforest","kind":"broadleaf","scale":1.05,"seed":1738072055},"geometry":{"type":"Point","coordinates":[-76.960962,-29.995241]}},{"type":"Feature","properties":{"biome":"Temperate rainforest","kind":"broadleaf","scale":1.05,"seed":31476490},"geometry":{"type":"Point","coordinates":[-27.244542,-41.584752]}},{"type":"Feature","properties":{"biome":"Temperate rainforest","kind":"broadleaf","scale":1.05,"seed":1016007247},"geometry":{"type":"Point","coordinates":[14.373165,38.296421]}},{"type":"Feature","properties":{"biome":"Temperate rainforest","kind":"broadleaf","scale":1.05,"seed":795956201},"geometry":{"type":"Point","coordinates":[-24.59269,-34.057408]}},{"type":"Feature","properties":{"biome":"Temperate rainforest","kind":"broadleaf","scale":1.05,"seed":730285308},"geometry":{"type":"Point","coordinates":[86.968513,-29.520278]}},{"type":"Feature","properties":{"biome":"Temperate rainforest","kind":"broadleaf","scale":1.05,"seed":88582727},"geometry":{"type":"Point","coordinates":[72.620298,-28.491619]}},{"type":"Feature","properties":{"biome":"Temperate rainforest","kind":"broadleaf","scale":1.05,"seed":562876840},"geometry":{"type":"Point","coordinates":[-65.533322,-21.335389]}},{"type":"Feature","properties":{"biome":"Temperate rainforest","kind":"broadleaf","scale":1.05,"seed":487513796},"geometry":{"type":"Point","coordinates":[-20.224306,-43.267728]}},{"type":"Feature","properties":{"biome":"Temperate rainforest","kind":"broadleaf","scale":1.05,"seed":890800201},"geometry":{"type":"Point","coordinates":[17.632818,38.290475]}},{"type":"Feature","properties":{"biome":"Temperate rainforest","kind":"broadleaf","scale":1.05,"seed":929384994},"geometry":{"type":"Point","coordinates":[79.304965,-31.208109]}},{"type":"Feature","properties":{"biome":"Temperate rainforest","kind":"broadleaf","scale":1.05,"seed":591937732},"geometry":{"type":"Point","coordinates":[-41.553531,-34.36226]}},{"type":"Feature","properties":{"biome":"Temperate rainforest","kind":"broadleaf","scale":1.05,"seed":1072190035},"geometry":{"type":"Point","coordinates":[81.732457,-18.798241]}},{"type":"Feature","properties":{"biome":"Temperate rainforest","kind":"broadleaf","scale":1.05,"seed":317122240},"geometry":{"type":"Point","coordinates":[45.084994,-37.195226]}},{"type":"Feature","properties":{"biome":"Temperate rainforest","kind":"broadleaf","scale":1.05,"seed":892699106},"geometry":{"type":"Point","coordinates":[38.18577,-34.882171]}},{"type":"Feature","properties":{"biome":"Temperate rainforest","kind":"broadleaf","scale":1.05,"seed":1877828300},"geometry":{"type":"Point","coordinates":[-47.615399,-29.178362]}},{"type":"Feature","properties":{"biome":"Temperate rainforest","kind":"broadleaf","scale":1.05,"seed":868670853},"geometry":{"type":"Point","coordinates":[-80.562951,-37.088408]}},{"type":"Feature","properties":{"biome":"Temperate rainforest","kind":"broadleaf","scale":1.05,"seed":550901837},"geometry":{"type":"Point","coordinates":[3.704179,44.478931]}},{"type":"Feature","properties":{"biome":"Temperate rainforest","kind":"broadleaf","scale":1.05,"seed":340828678},"geometry":{"type":"Point","coordinates":[-47.524717,-30.451519]}},{"type":"Feature","properties":{"biome":"Temperate rainforest","kind":"broadleaf","scale":1.05,"seed":254570021},"geometry":{"type":"Point","coordinates":[-68.162621,35.630922]}},{"type":"Feature","properties":{"biome":"Temperate rainforest","kind":"broadleaf","scale":1.05,"seed":911937343},"geometry":{"type":"Point","coordinates":[41.010021,-39.856245]}},{"type":"Feature","properties":{"biome":"Temperate rainforest","kind":"broadleaf","scale":1.05,"seed":1138615202},"geometry":{"type":"Point","coordinates":[-64.732856,-30.484282]}},{"type":"Feature","properties":{"biome":"Temperate rainforest","kind":"broadleaf","scale":1.05,"seed":1609860418},"geometry":{"type":"Point","coordinates":[85.344187,-34.191675]}},{"type":"Feature","properties":{"biome":"Temperate rainforest","kind":"broadleaf","scale":1.05,"seed":1903882260},"geometry":{"type":"Point","coordinates":[42.974369,-40.922394]}},{"type":"Feature","properties":{"biome":"Temperate rainforest","kind":"broadleaf","scale":1.05,"seed":1261695003},"geometry":{"type":"Point","coordinates":[-21.365562,-42.447877]}},{"type":"Feature","properties":{"biome":"Temperate rainforest","kind":"broadleaf","scale":1.05,"seed":1830088274},"geometry":{"type":"Point","coordinates":[44.630137,-44.569985]}},{"type":"Feature","properties":{"biome":"Temperate rainforest","kind":"broadleaf","scale":1.05,"seed":1738327081},"geometry":{"type":"Point","coordinates":[-41.496819,-32.451371]}},{"type":"Feature","properties":{"biome":"Temperate rainforest","kind":"broadleaf","scale":1.05,"seed":295595053},"geometry":{"type":"Point","coordinates":[-75.530263,-26.245102]}},{"type":"Feature","properties":{"biome":"Temperate rainforest","kind":"broadleaf","scale":1.05,"seed":1762211915},"geometry":{"type":"Point","coordinates":[-78.436769,-13.690519]}},{"type":"Feature","properties":{"biome":"Temperate rainforest","kind":"broadleaf","scale":1.05,"seed":665800613},"geometry":{"type":"Point","coordinates":[39.547704,-19.089723]}},{"type":"Feature","properties":{"biome":"Temperate rainforest","kind":"broadleaf","scale":1.05,"seed":408910343},"geometry":{"type":"Point","coordinates":[-82.545294,-18.425842]}},{"type":"Feature","properties":{"biome":"Temperate rainforest","kind":"broadleaf","scale":1.05,"seed":1306221386},"geometry":{"type":"Point","coordinates":[88.312946,-33.22361]}},{"type":"Feature","properties":{"biome":"Temperate rainforest","kind":"broadleaf","scale":1.05,"seed":1978443795},"geometry":{"type":"Point","coordinates":[-73.760399,-36.144934]}},{"type":"Feature","properties":{"biome":"Temperate rainforest","kind":"broadleaf","scale":1.05,"seed":1618621192},"geometry":{"type":"Point","coordinates":[41.77498,-36.857234]}},{"type":"Feature","properties":{"biome":"Temperate rainforest","kind":"broadleaf","scale":1.05,"seed":1662336116},"geometry":{"type":"Point","coordinates":[-60.968002,37.951965]}},{"type":"Feature","properties":{"biome":"Temperate rainforest","kind":"broadleaf","scale":1.05,"seed":1017153356},"geometry":{"type":"Point","coordinates":[63.348705,-25.444165]}},{"type":"Feature","properties":{"biome":"Temperate rainforest","kind":"broadleaf","scale":1.05,"seed":1309482283},"geometry":{"type":"Point","coordinates":[57.117864,-25.430277]}},{"type":"Feature","properties":{"biome":"Temperate rainforest","kind":"broadleaf","scale":1.05,"seed":316189654},"geometry":{"type":"Point","coordinates":[-57.720779,24.363635]}},{"type":"Feature","properties":{"biome":"Temperate rainforest","kind":"broadleaf","scale":1.05,"seed":110063021},"geometry":{"type":"Point","coordinates":[-64.226438,38.773487]}},{"type":"Feature","properties":{"biome":"Temperate rainforest","kind":"broadleaf","scale":1.05,"seed":346442104},"geometry":{"type":"Point","coordinates":[58.95103,-22.62549]}},{"type":"Feature","properties":{"biome":"Temperate rainforest","kind":"broadleaf","scale":1.05,"seed":903868168},"geometry":{"type":"Point","coordinates":[-76.82463,-37.926804]}},{"type":"Feature","properties":{"biome":"Temperate rainforest","kind":"broadleaf","scale":1.05,"seed":1920299025},"geometry":{"type":"Point","coordinates":[-28.389454,-40.566325]}},{"type":"Feature","properties":{"biome":"Temperate rainforest","kind":"broadleaf","scale":1.05,"seed":170998243},"geometry":{"type":"Point","coordinates":[57.468743,-22.731581]}},{"type":"Feature","properties":{"biome":"Temperate rainforest","kind":"broadleaf","scale":1.05,"seed":1718394419},"geometry":{"type":"Point","coordinates":[64.410504,-27.60436]}},{"type":"Feature","properties":{"biome":"Temperate rainforest","kind":"broadleaf","scale":1.05,"seed":747292567},"geometry":{"type":"Point","coordinates":[-55.764516,23.938117]}},{"type":"Feature","properties":{"biome":"Temperate rainforest","kind":"broadleaf","scale":1.05,"seed":56003751},"geometry":{"type":"Point","coordinates":[-62.954569,-32.911049]}},{"type":"Feature","properties":{"biome":"Temperate rainforest","kind":"broadleaf","scale":1.05,"seed":1776285997},"geometry":{"type":"Point","coordinates":[-70.849042,-41.798189]}},{"type":"Feature","properties":{"biome":"Temperate rainforest","kind":"broadleaf","scale":1.05,"seed":943984007},"geometry":{"type":"Point","coordinates":[-17.949546,-42.427376]}},{"type":"Feature","properties":{"biome":"Temperate rainforest","kind":"broadleaf","scale":1.05,"seed":1459685123},"geometry":{"type":"Point","coordinates":[-68.90943,-26.989614]}},{"type":"Feature","properties":{"biome":"Temperate rainforest","kind":"broadleaf","scale":1.05,"seed":325042534},"geometry":{"type":"Point","coordinates":[43.336967,-35.759397]}},{"type":"Feature","properties":{"biome":"Temperate rainforest","kind":"broadleaf","scale":1.05,"seed":403050506},"geometry":{"type":"Point","coordinates":[-77.724111,-15.682563]}},{"type":"Feature","properties":{"biome":"Temperate rainforest","kind":"broadleaf","scale":1.05,"seed":1789452819},"geometry":{"type":"Point","coordinates":[-45.038423,-33.72411]}},{"type":"Feature","properties":{"biome":"Temperate rainforest","kind":"broadleaf","scale":1.05,"seed":753394570},"geometry":{"type":"Point","coordinates":[78.662491,-32.449927]}},{"type":"Feature","properties":{"biome":"Temperate rainforest","kind":"broadleaf","scale":1.05,"seed":662720780},"geometry":{"type":"Point","coordinates":[-2.737855,-36.56837]}},{"type":"Feature","properties":{"biome":"Temperate rainforest","kind":"broadleaf","scale":1.05,"seed":1598929094},"geometry":{"type":"Point","coordinates":[-7.178871,-32.22629]}},{"type":"Feature","properties":{"biome":"Temperate rainforest","kind":"broadleaf","scale":1.05,"seed":1538157244},"geometry":{"type":"Point","coordinates":[-70.830028,-36.522292]}},{"type":"Feature","properties":{"biome":"Temperate rainforest","kind":"broadleaf","scale":1.05,"seed":193394457},"geometry":{"type":"Point","coordinates":[51.172005,43.849943]}},{"type":"Feature","properties":{"biome":"Temperate rainforest","kind":"broadleaf","scale":1.05,"seed":283784489},"geometry":{"type":"Point","coordinates":[-62.590333,-35.933424]}},{"type":"Feature","properties":{"biome":"Temperate rainforest","kind":"broadleaf","scale":1.05,"seed":975492340},"geometry":{"type":"Point","coordinates":[1.219672,-35.020458]}},{"type":"Feature","properties":{"biome":"Temperate rainforest","kind":"broadleaf","scale":1.05,"seed":657281748},"geometry":{"type":"Point","coordinates":[47.071901,-40.611145]}},{"type":"Feature","properties":{"biome":"Temperate deciduous forest","kind":"broadleaf","scale":0.95,"seed":946399630},"geometry":{"type":"Point","coordinates":[53.811954,23.128785]}},{"type":"Feature","properties":{"biome":"Temperate deciduous forest","kind":"broadleaf","scale":0.95,"seed":829946233},"geometry":{"type":"Point","coordinates":[15.950979,31.091752]}},{"type":"Feature","properties":{"biome":"Temperate deciduous forest","kind":"broadleaf","scale":0.95,"seed":1239986988},"geometry":{"type":"Point","coordinates":[-2.188725,39.664058]}},{"type":"Feature","properties":{"biome":"Temperate deciduous forest","kind":"broadleaf","scale":0.95,"seed":697808958},"geometry":{"type":"Point","coordinates":[3.745232,40.770186]}},{"type":"Feature","properties":{"biome":"Temperate deciduous forest","kind":"broadleaf","scale":0.95,"seed":601944291},"geometry":{"type":"Point","coordinates":[13.691306,30.823902]}},{"type":"Feature","properties":{"biome":"Temperate deciduous forest","kind":"broadleaf","scale":0.95,"seed":1575364697},"geometry":{"type":"Point","coordinates":[27.127324,-44.612995]}},{"type":"Feature","properties":{"biome":"Temperate deciduous forest","kind":"broadleaf","scale":0.95,"seed":1342091745},"geometry":{"type":"Point","coordinates":[-34.437234,-31.726712]}},{"type":"Feature","properties":{"biome":"Temperate deciduous forest","kind":"broadleaf","scale":0.95,"seed":1503839682},"geometry":{"type":"Point","coordinates":[13.903491,38.267627]}},{"type":"Feature","properties":{"biome":"Temperate deciduous forest","kind":"broadleaf","scale":0.95,"seed":346185422},"geometry":{"type":"Point","coordinates":[-7.611759,-36.975053]}},{"type":"Feature","properties":{"biome":"Temperate deciduous forest","kind":"broadleaf","scale":0.95,"seed":1395703007},"geometry":{"type":"Point","coordinates":[48.62544,27.140925]}},{"type":"Feature","properties":{"biome":"Temperate deciduous forest","kind":"broadleaf","scale":0.95,"seed":1704060084},"geometry":{"type":"Point","coordinates":[20.422719,9.045689]}},{"type":"Feature","properties":{"biome":"Temperate deciduous forest","kind":"broadleaf","scale":0.95,"seed":1121845741},"geometry":{"type":"Point","coordinates":[-62.896554,-21.499807]}},{"type":"Feature","properties":{"biome":"Temperate deciduous forest","kind":"broadleaf","scale":0.95,"seed":1403589548},"geometry":{"type":"Point","coordinates":[41.595307,-19.460275]}},{"type":"Feature","properties":{"biome":"Temperate deciduous forest","kind":"broadleaf","scale":0.95,"seed":475947671},"geometry":{"type":"Point","coordinates":[-46.949678,-25.716779]}},{"type":"Feature","properties":{"biome":"Temperate deciduous forest","kind":"broadleaf","scale":0.95,"seed":1450507019},"geometry":{"type":"Point","coordinates":[-14.916065,-39.316422]}},{"type":"Feature","properties":{"biome":"Temperate deciduous forest","kind":"broadleaf","scale":0.95,"seed":728006155},"geometry":{"type":"Point","coordinates":[44.483491,-18.974954]}},{"type":"Feature","properties":{"biome":"Temperate deciduous forest","kind":"broadleaf","scale":0.95,"seed":1182952929},"geometry":{"type":"Point","coordinates":[-22.813823,-26.189469]}},{"type":"Feature","properties":{"biome":"Temperate deciduous forest","kind":"broadleaf","scale":0.95,"seed":530110988},"geometry":{"type":"Point","coordinates":[24.022467,20.973272]}},{"type":"Feature","properties":{"biome":"Temperate deciduous forest","kind":"broadleaf","scale":0.95,"seed":1329728742},"geometry":{"type":"Point","coordinates":[52.904843,-21.323527]}},{"type":"Feature","properties":{"biome":"Temperate deciduous forest","kind":"broadleaf","scale":0.95,"seed":1505908313},"geometry":{"type":"Point","coordinates":[-6.310176,-32.713467]}},{"type":"Feature","properties":{"biome":"Temperate deciduous forest","kind":"broadleaf","scale":0.95,"seed":1927765597},"geometry":{"type":"Point","coordinates":[22.180397,20.647606]}},{"type":"Feature","properties":{"biome":"Temperate deciduous forest","kind":"broadleaf","scale":0.95,"seed":1329434412},"geometry":{"type":"Point","coordinates":[-19.231098,-35.376751]}},{"type":"Feature","properties":{"biome":"Temperate deciduous forest","kind":"broadleaf","scale":0.95,"seed":1895151936},"geometry":{"type":"Point","coordinates":[-23.30107,-38.793256]}},{"type":"Feature","properties":{"biome":"Temperate deciduous forest","kind":"broadleaf","scale":0.95,"seed":253742666},"geometry":{"type":"Point","coordinates":[58.765507,26.415871]}},{"type":"Feature","properties":{"biome":"Temperate deciduous forest","kind":"broadleaf","scale":0.95,"seed":1972915143},"geometry":{"type":"Point","coordinates":[83.28979,-27.069124]}},{"type":"Feature","properties":{"biome":"Temperate deciduous forest","kind":"broadleaf","scale":0.95,"seed":1385944737},"geometry":{"type":"Point","coordinates":[-49.072503,27.17618]}},{"type":"Feature","properties":{"biome":"Temperate deciduous forest","kind":"broadleaf","scale":0.95,"seed":23738078},"geometry":{"type":"Point","coordinates":[0.10465,30.625709]}},{"type":"Feature","properties":{"biome":"Temperate deciduous forest","kind":"broadleaf","scale":0.95,"seed":1262377780},"geometry":{"type":"Point","coordinates":[-33.791506,-18.210583]}},{"type":"Feature","properties":{"biome":"Temperate deciduous forest","kind":"broadleaf","scale":0.95,"seed":98347116},"geometry":{"type":"Point","coordinates":[5.787635,44.801616]}},{"type":"Feature","properties":{"biome":"Temperate deciduous forest","kind":"broadleaf","scale":0.95,"seed":627126654},"geometry":{"type":"Point","coordinates":[-19.382827,-38.523292]}},{"type":"Feature","properties":{"biome":"Temperate deciduous forest","kind":"broadleaf","scale":0.95,"seed":81796904},"geometry":{"type":"Point","coordinates":[-28.070623,-26.630023]}},{"type":"Feature","properties":{"biome":"Temperate deciduous forest","kind":"broadleaf","scale":0.95,"seed":1853558375},"geometry":{"type":"Point","coordinates":[-28.259554,-38.534565]}},{"type":"Feature","properties":{"biome":"Temperate deciduous forest","kind":"broadleaf","scale":0.95,"seed":1079215359},"geometry":{"type":"Point","coordinates":[72.291297,-28.130968]}},{"type":"Feature","properties":{"biome":"Temperate deciduous forest","kind":"broadleaf","scale":0.95,"seed":738670780},"geometry":{"type":"Point","coordinates":[83.402301,-24.230162]}},{"type":"Feature","properties":{"biome":"Temperate deciduous forest","kind":"broadleaf","scale":0.95,"seed":115899206},"geometry":{"type":"Point","coordinates":[61.412817,22.891757]}},{"type":"Feature","properties":{"biome":"Temperate deciduous forest","kind":"broadleaf","scale":0.95,"seed":1156785585},"geometry":{"type":"Point","coordinates":[0.27233,36.371067]}},{"type":"Feature","properties":{"biome":"Temperate deciduous forest","kind":"broadleaf","scale":0.95,"seed":291746732},"geometry":{"type":"Point","coordinates":[-49.645977,-22.382681]}},{"type":"Feature","properties":{"biome":"Temperate deciduous forest","kind":"broadleaf","scale":0.95,"seed":1714298499},"geometry":{"type":"Point","coordinates":[-68.167094,19.294136]}},{"type":"Feature","properties":{"biome":"Temperate deciduous forest","kind":"broadleaf","scale":0.95,"seed":489941787},"geometry":{"type":"Point","coordinates":[-57.043429,-11.753361]}},{"type":"Feature","properties":{"biome":"Temperate deciduous forest","kind":"broadleaf","scale":0.95,"seed":554476327},"geometry":{"type":"Point","coordinates":[-37.941207,-29.810646]}},{"type":"Feature","properties":{"biome":"Temperate deciduous forest","kind":"broadleaf","scale":0.95,"seed":1528688917},"geometry":{"type":"Point","coordinates":[42.74459,-20.119518]}},{"type":"Feature","properties":{"biome":"Temperate deciduous forest","kind":"broadleaf","scale":0.95,"seed":1025906654},"geometry":{"type":"Point","coordinates":[20.688248,16.153122]}},{"type":"Feature","properties":{"biome":"Temperate deciduous forest","kind":"broadleaf","scale":0.95,"seed":1572497139},"geometry":{"type":"Point","coordinates":[-5.774629,42.982411]}},{"type":"Feature","properties":{"biome":"Temperate deciduous forest","kind":"broadleaf","scale":0.95,"seed":1589924046},"geometry":{"type":"Point","coordinates":[-1.298795,-36.063994]}},{"type":"Feature","properties":{"biome":"Temperate deciduous forest","kind":"broadleaf","scale":0.95,"seed":1885005000},"geometry":{"type":"Point","coordinates":[40.118225,-17.778437]}},{"type":"Feature","properties":{"biome":"Temperate deciduous forest","kind":"broadleaf","scale":0.95,"seed":1506857343},"geometry":{"type":"Point","coordinates":[-16.034207,-35.079227]}},{"type":"Feature","properties":{"biome":"Temperate deciduous forest","kind":"broadleaf","scale":0.95,"seed":104936659},"geometry":{"type":"Point","coordinates":[-66.051003,-18.841079]}},{"type":"Feature","properties":{"biome":"Temperate deciduous forest","kind":"broadleaf","scale":0.95,"seed":503834222},"geometry":{"type":"Point","coordinates":[77.658005,-17.629813]}},{"type":"Feature","properties":{"biome":"Temperate deciduous forest","kind":"broadleaf","scale":0.95,"seed":1737597436},"geometry":{"type":"Point","coordinates":[14.245212,35.848825]}},{"type":"Feature","properties":{"biome":"Temperate deciduous forest","kind":"broadleaf","scale":0.95,"seed":1991985713},"geometry":{"type":"Point","coordinates":[-57.686093,-22.70492]}},{"type":"Feature","properties":{"biome":"Temperate deciduous forest","kind":"broadleaf","scale":0.95,"seed":39531932},"geometry":{"type":"Point","coordinates":[35.385591,27.410769]}},{"type":"Feature","properties":{"biome":"Temperate deciduous forest","kind":"broadleaf","scale":0.95,"seed":1832738430},"geometry":{"type":"Point","coordinates":[-24.87333,-40.02406]}},{"type":"Feature","properties":{"biome":"Temperate deciduous forest","kind":"broadleaf","scale":0.95,"seed":1285954902},"geometry":{"type":"Point","coordinates":[-49.900435,-24.484777]}},{"type":"Feature","properties":{"biome":"Temperate deciduous forest","kind":"broadleaf","scale":0.95,"seed":1477956947},"geometry":{"type":"Point","coordinates":[-46.158957,-24.801859]}},{"type":"Feature","properties":{"biome":"Temperate deciduous forest","kind":"broadleaf","scale":0.95,"seed":1083248117},"geometry":{"type":"Point","coordinates":[79.766737,-23.050316]}},{"type":"Feature","properties":{"biome":"Temperate deciduous forest","kind":"broadleaf","scale":0.95,"seed":1996047964},"geometry":{"type":"Point","coordinates":[-10.830168,-37.524392]}},{"type":"Feature","properties":{"biome":"Temperate deciduous forest","kind":"broadleaf","scale":0.95,"seed":1336344211},"geometry":{"type":"Point","coordinates":[65.972249,-26.204683]}},{"type":"Feature","properties":{"biome":"Temperate deciduous forest","kind":"broadleaf","scale":0.95,"seed":1005311322},"geometry":{"type":"Point","coordinates":[-55.979755,-20.16326]}},{"type":"Feature","properties":{"biome":"Temperate deciduous forest","kind":"broadleaf","scale":0.95,"seed":975739203},"geometry":{"type":"Point","coordinates":[29.666586,-45.380922]}},{"type":"Feature","properties":{"biome":"Temperate deciduous forest","kind":"broadleaf","scale":0.95,"seed":291274937},"geometry":{"type":"Point","coordinates":[-34.615703,-29.952983]}},{"type":"Feature","properties":{"biome":"Temperate deciduous forest","kind":"broadleaf","scale":0.95,"seed":52426521},"geometry":{"type":"Point","coordinates":[70.138438,-24.407295]}},{"type":"Feature","properties":{"biome":"Temperate deciduous forest","kind":"broadleaf","scale":0.95,"seed":787145294},"geometry":{"type":"Point","coordinates":[79.410842,-21.578362]}},{"type":"Feature","properties":{"biome":"Temperate deciduous forest","kind":"broadleaf","scale":0.95,"seed":429236735},"geometry":{"type":"Point","coordinates":[-5.451833,-36.254949]}},{"type":"Feature","properties":{"biome":"Temperate deciduous forest","kind":"broadleaf","scale":0.95,"seed":1334600911},"geometry":{"type":"Point","coordinates":[-62.965158,-28.876092]}},{"type":"Feature","properties":{"biome":"Temperate deciduous forest","kind":"broadleaf","scale":0.95,"seed":1712984189},"geometry":{"type":"Point","coordinates":[-30.436975,-38.085202]}},{"type":"Feature","properties":{"biome":"Temperate deciduous forest","kind":"broadleaf","scale":0.95,"seed":806874786},"geometry":{"type":"Point","coordinates":[73.186221,-27.043332]}},{"type":"Feature","properties":{"biome":"Temperate deciduous forest","kind":"broadleaf","scale":0.95,"seed":1021513999},"geometry":{"type":"Point","coordinates":[22.562972,13.923329]}},{"type":"Feature","properties":{"biome":"Temperate deciduous forest","kind":"broadleaf","scale":0.95,"seed":853039555},"geometry":{"type":"Point","coordinates":[67.442134,-22.661912]}},{"type":"Feature","properties":{"biome":"Temperate deciduous forest","kind":"broadleaf","scale":0.95,"seed":1384442006},"geometry":{"type":"Point","coordinates":[79.32022,-26.737762]}},{"type":"Feature","properties":{"biome":"Temperate deciduous forest","kind":"broadleaf","scale":0.95,"seed":633512424},"geometry":{"type":"Point","coordinates":[41.948519,-44.72889]}},{"type":"Feature","properties":{"biome":"Tropical rainforest","kind":"tropical","scale":1.15,"seed":227016415},"geometry":{"type":"Point","coordinates":[-70.27676,12.291841]}},{"type":"Feature","properties":{"biome":"Tropical rainforest","kind":"tropical","scale":1.15,"seed":695015694},"geometry":{"type":"Point","coordinates":[-74.186311,10.883173]}},{"type":"Feature","properties":{"biome":"Tropical rainforest","kind":"tropical","scale":1.15,"seed":20201109},"geometry":{"type":"Point","coordinates":[66.999733,-1.933088]}},{"type":"Feature","properties":{"biome":"Tropical rainforest","kind":"tropical","scale":1.15,"seed":1760063779},"geometry":{"type":"Point","coordinates":[-68.378183,-3.086128]}},{"type":"Feature","properties":{"biome":"Tropical rainforest","kind":"tropical","scale":1.15,"seed":678623561},"geometry":{"type":"Point","coordinates":[71.697985,-2.695037]}},{"type":"Feature","properties":{"biome":"Tropical rainforest","kind":"tropical","scale":1.15,"seed":1028830693},"geometry":{"type":"Point","coordinates":[-45.066509,6.438278]}},{"type":"Feature","properties":{"biome":"Tropical rainforest","kind":"tropical","scale":1.15,"seed":24531230},"geometry":{"type":"Point","coordinates":[45.606942,6.932411]}},{"type":"Feature","properties":{"biome":"Tropical rainforest","kind":"tropical","scale":1.15,"seed":516217048},"geometry":{"type":"Point","coordinates":[55.311432,5.817192]}},{"type":"Feature","properties":{"biome":"Tropical rainforest","kind":"tropical","scale":1.15,"seed":738120007},"geometry":{"type":"Point","coordinates":[-11.558316,17.04861]}},{"type":"Feature","properties":{"biome":"Tropical rainforest","kind":"tropical","scale":1.15,"seed":998473540},"geometry":{"type":"Point","coordinates":[78.344932,0.636457]}},{"type":"Feature","properties":{"biome":"Tropical rainforest","kind":"tropical","scale":1.15,"seed":11973124},"geometry":{"type":"Point","coordinates":[69.929515,-4.42475]}},{"type":"Feature","properties":{"biome":"Tropical rainforest","kind":"tropical","scale":1.15,"seed":1330834167},"geometry":{"type":"Point","coordinates":[-14.640032,-8.185003]}},{"type":"Feature","properties":{"biome":"Tropical rainforest","kind":"tropical","scale":1.15,"seed":1843658380},"geometry":{"type":"Point","coordinates":[-31.037793,0.345974]}},{"type":"Feature","properties":{"biome":"Tropical rainforest","kind":"tropical","scale":1.15,"seed":184164248},"geometry":{"type":"Point","coordinates":[60.856799,2.554531]}},{"type":"Feature","properties":{"biome":"Tropical rainforest","kind":"tropical","scale":1.15,"seed":722835036},"geometry":{"type":"Point","coordinates":[-53.846384,-8.546588]}},{"type":"Feature","properties":{"biome":"Tropical rainforest","kind":"tropical","scale":1.15,"seed":1952036390},"geometry":{"type":"Point","coordinates":[-19.61589,12.157454]}},{"type":"Feature","properties":{"biome":"Tropical rainforest","kind":"tropical","scale":1.15,"seed":35209198},"geometry":{"type":"Point","coordinates":[-65.442414,-1.783759]}},{"type":"Feature","properties":{"biome":"Tropical rainforest","kind":"tropical","scale":1.15,"seed":1373279416},"geometry":{"type":"Point","coordinates":[64.660495,-1.164186]}},{"type":"Feature","properties":{"biome":"Tropical rainforest","kind":"tropical","scale":1.15,"seed":1400111309},"geometry":{"type":"Point","coordinates":[-20.823248,-0.576415]}},{"type":"Feature","properties":{"biome":"Tropical rainforest","kind":"tropical","scale":1.15,"seed":111581255},"geometry":{"type":"Point","coordinates":[57.860553,-0.892834]}},{"type":"Feature","properties":{"biome":"Tropical rainforest","kind":"tropical","scale":1.15,"seed":1911742105},"geometry":{"type":"Point","coordinates":[46.407204,2.500045]}},{"type":"Feature","properties":{"biome":"Tropical rainforest","kind":"tropical","scale":1.15,"seed":118523603},"geometry":{"type":"Point","coordinates":[60.656402,1.334387]}},{"type":"Feature","properties":{"biome":"Tropical rainforest","kind":"tropical","scale":1.15,"seed":764570754},"geometry":{"type":"Point","coordinates":[-76.5371,6.158264]}},{"type":"Feature","properties":{"biome":"Tropical rainforest","kind":"tropical","scale":1.15,"seed":642838579},"geometry":{"type":"Point","coordinates":[57.398582,4.515971]}},{"type":"Feature","properties":{"biome":"Tropical rainforest","kind":"tropical","scale":1.15,"seed":618743840},"geometry":{"type":"Point","coordinates":[-75.785422,10.770446]}},{"type":"Feature","properties":{"biome":"Tropical rainforest","kind":"tropical","scale":1.15,"seed":724825494},"geometry":{"type":"Point","coordinates":[-22.565958,25.579377]}},{"type":"Feature","properties":{"biome":"Tropical rainforest","kind":"tropical","scale":1.15,"seed":840111686},"geometry":{"type":"Point","coordinates":[73.396481,-1.131891]}},{"type":"Feature","properties":{"biome":"Tropical rainforest","kind":"tropical","scale":1.15,"seed":946052570},"geometry":{"type":"Point","coordinates":[-12.947377,-1.761983]}},{"type":"Feature","properties":{"biome":"Tropical rainforest","kind":"tropical","scale":1.15,"seed":64753622},"geometry":{"type":"Point","coordinates":[-27.500968,28.75375]}},{"type":"Feature","properties":{"biome":"Tropical rainforest","kind":"tropical","scale":1.15,"seed":510390083},"geometry":{"type":"Point","coordinates":[58.152619,2.740039]}},{"type":"Feature","properties":{"biome":"Tropical rainforest","kind":"tropical","scale":1.15,"seed":39629322},"geometry":{"type":"Point","coordinates":[-67.93295,15.121936]}},{"type":"Feature","properties":{"biome":"Tropical rainforest","kind":"tropical","scale":1.15,"seed":1236133956},"geometry":{"type":"Point","coordinates":[-75.938757,5.113031]}},{"type":"Feature","properties":{"biome":"Tropical rainforest","kind":"tropical","scale":1.15,"seed":1460005759},"geometry":{"type":"Point","coordinates":[41.508834,-0.523072]}},{"type":"Feature","properties":{"biome":"Tropical rainforest","kind":"tropical","scale":1.15,"seed":1660744330},"geometry":{"type":"Point","coordinates":[80.66167,-16.773735]}},{"type":"Feature","properties":{"biome":"Tropical rainforest","kind":"tropical","scale":1.15,"seed":348015890},"geometry":{"type":"Point","coordinates":[64.453283,-4.777273]}},{"type":"Feature","properties":{"biome":"Tropical rainforest","kind":"tropical","scale":1.15,"seed":993850879},"geometry":{"type":"Point","coordinates":[39.118723,6.570892]}},{"type":"Feature","properties":{"biome":"Tropical rainforest","kind":"tropical","scale":1.15,"seed":1708822694},"geometry":{"type":"Point","coordinates":[-29.298007,3.085087]}},{"type":"Feature","properties":{"biome":"Tropical rainforest","kind":"tropical","scale":1.15,"seed":1725841297},"geometry":{"type":"Point","coordinates":[-15.777615,-0.785757]}},{"type":"Feature","properties":{"biome":"Tropical rainforest","kind":"tropical","scale":1.15,"seed":1868479728},"geometry":{"type":"Point","coordinates":[-57.533913,-7.607302]}},{"type":"Feature","properties":{"biome":"Tropical rainforest","kind":"tropical","scale":1.15,"seed":1003555146},"geometry":{"type":"Point","coordinates":[-32.911804,3.372787]}},{"type":"Feature","properties":{"biome":"Tropical rainforest","kind":"tropical","scale":1.15,"seed":823642295},"geometry":{"type":"Point","coordinates":[-40.444885,5.111518]}},{"type":"Feature","properties":{"biome":"Tropical rainforest","kind":"tropical","scale":1.15,"seed":1962591761},"geometry":{"type":"Point","coordinates":[-75.94849,-1.110834]}},{"type":"Feature","properties":{"biome":"Tropical rainforest","kind":"tropical","scale":1.15,"seed":1160992478},"geometry":{"type":"Point","coordinates":[-49.708577,7.551375]}},{"type":"Feature","properties":{"biome":"Tropical rainforest","kind":"tropical","scale":1.15,"seed":585813007},"geometry":{"type":"Point","coordinates":[37.978866,6.05562]}},{"type":"Feature","properties":{"biome":"Tropical rainforest","kind":"tropical","scale":1.15,"seed":1527225337},"geometry":{"type":"Point","coordinates":[77.667437,-5.066348]}},{"type":"Feature","properties":{"biome":"Tropical rainforest","kind":"tropical","scale":1.15,"seed":1904452753},"geometry":{"type":"Point","coordinates":[40.39965,2.881869]}},{"type":"Feature","properties":{"biome":"Tropical rainforest","kind":"tropical","scale":1.15,"seed":1540966125},"geometry":{"type":"Point","coordinates":[84.169735,-17.21504]}},{"type":"Feature","properties":{"biome":"Tropical rainforest","kind":"tropical","scale":1.15,"seed":1125754222},"geometry":{"type":"Point","coordinates":[78.383118,-10.315188]}},{"type":"Feature","properties":{"biome":"Tropical rainforest","kind":"tropical","scale":1.15,"seed":890458050},"geometry":{"type":"Point","coordinates":[47.304855,0.101748]}},{"type":"Feature","properties":{"biome":"Tropical rainforest","kind":"tropical","scale":1.15,"seed":1710722895},"geometry":{"type":"Point","coordinates":[66.140672,0.162609]}},{"type":"Feature","properties":{"biome":"Tropical rainforest","kind":"tropical","scale":1.15,"seed":1649248879},"geometry":{"type":"Point","coordinates":[78.007895,-12.382042]}},{"type":"Feature","properties":{"biome":"Tropical rainforest","kind":"tropical","scale":1.15,"seed":387427113},"geometry":{"type":"Point","coordinates":[-64.360743,-3.509609]}},{"type":"Feature","properties":{"biome":"Tropical rainforest","kind":"tropical","scale":1.15,"seed":1506683941},"geometry":{"type":"Point","coordinates":[66.193492,-4.520858]}},{"type":"Feature","properties":{"biome":"Tropical rainforest","kind":"tropical","scale":1.15,"seed":994862135},"geometry":{"type":"Point","coordinates":[-22.296134,23.978076]}},{"type":"Feature","properties":{"biome":"Tropical rainforest","kind":"tropical","scale":1.15,"seed":1618251769},"geometry":{"type":"Point","coordinates":[67.29617,2.250114]}},{"type":"Feature","properties":{"biome":"Tropical rainforest","kind":"tropical","scale":1.15,"seed":1901515681},"geometry":{"type":"Point","coordinates":[77.254685,-0.011261]}},{"type":"Feature","properties":{"biome":"Tropical rainforest","kind":"tropical","scale":1.15,"seed":1535818306},"geometry":{"type":"Point","coordinates":[-20.645298,23.604167]}},{"type":"Feature","properties":{"biome":"Tropical rainforest","kind":"tropical","scale":1.15,"seed":833215947},"geometry":{"type":"Point","coordinates":[75.706948,0.74487]}},{"type":"Feature","properties":{"biome":"Tropical rainforest","kind":"tropical","scale":1.15,"seed":655410363},"geometry":{"type":"Point","coordinates":[-15.920431,-9.093897]}},{"type":"Feature","properties":{"biome":"Tropical rainforest","kind":"tropical","scale":1.15,"seed":1393622770},"geometry":{"type":"Point","coordinates":[-30.135817,28.162784]}},{"type":"Feature","properties":{"biome":"Tropical rainforest","kind":"tropical","scale":1.15,"seed":1605598269},"geometry":{"type":"Point","coordinates":[45.307957,0.023988]}},{"type":"Feature","properties":{"biome":"Tropical rainforest","kind":"tropical","scale":1.15,"seed":1986811851},"geometry":{"type":"Point","coordinates":[58.060626,1.495045]}},{"type":"Feature","properties":{"biome":"Tropical rainforest","kind":"tropical","scale":1.15,"seed":1669708718},"geometry":{"type":"Point","coordinates":[52.573809,-0.20881]}},{"type":"Feature","properties":{"biome":"Tropical rainforest","kind":"tropical","scale":1.15,"seed":1813097423},"geometry":{"type":"Point","coordinates":[-69.143964,-0.586743]}},{"type":"Feature","properties":{"biome":"Tropical rainforest","kind":"tropical","scale":1.15,"seed":1807328963},"geometry":{"type":"Point","coordinates":[-69.981186,-2.810015]}},{"type":"Feature","properties":{"biome":"Tropical rainforest","kind":"tropical","scale":1.15,"seed":1269651253},"geometry":{"type":"Point","coordinates":[-15.714135,-10.97014]}},{"type":"Feature","properties":{"biome":"Tropical rainforest","kind":"tropical","scale":1.15,"seed":1884827191},"geometry":{"type":"Point","coordinates":[-17.546989,-10.06441]}},{"type":"Feature","properties":{"biome":"Tropical rainforest","kind":"tropical","scale":1.15,"seed":587823353},"geometry":{"type":"Point","coordinates":[72.779296,0.208701]}},{"type":"Feature","properties":{"biome":"Tropical rainforest","kind":"tropical","scale":1.15,"seed":826770850},"geometry":{"type":"Point","coordinates":[-12.167105,19.157565]}},{"type":"Feature","properties":{"biome":"Tropical rainforest","kind":"tropical","scale":1.15,"seed":667258382},"geometry":{"type":"Point","coordinates":[65.125283,-2.463795]}},{"type":"Feature","properties":{"biome":"Tropical rainforest","kind":"tropical","scale":1.15,"seed":464151779},"geometry":{"type":"Point","coordinates":[57.22366,0.21715]}},{"type":"Feature","properties":{"biome":"Tropical rainforest","kind":"tropical","scale":1.15,"seed":1324570424},"geometry":{"type":"Point","coordinates":[-70.354767,14.299915]}},{"type":"Feature","properties":{"biome":"Tropical rainforest","kind":"tropical","scale":1.15,"seed":354068883},"geometry":{"type":"Point","coordinates":[-68.834966,1.462942]}},{"type":"Feature","properties":{"biome":"Tropical rainforest","kind":"tropical","scale":1.15,"seed":1163618817},"geometry":{"type":"Point","coordinates":[-15.826635,19.287576]}},{"type":"Feature","properties":{"biome":"Tropical rainforest","kind":"tropical","scale":1.15,"seed":750448407},"geometry":{"type":"Point","coordinates":[-25.898941,5.853347]}},{"type":"Feature","properties":{"biome":"Tropical rainforest","kind":"tropical","scale":1.15,"seed":539890631},"geometry":{"type":"Point","coordinates":[-18.641162,10.72223]}},{"type":"Feature","properties":{"biome":"Tropical rainforest","kind":"tropical","scale":1.15,"seed":30452198},"geometry":{"type":"Point","coordinates":[-72.825014,11.387382]}},{"type":"Feature","properties":{"biome":"Tropical rainforest","kind":"tropical","scale":1.15,"seed":619305270},"geometry":{"type":"Point","coordinates":[-74.652847,6.544384]}},{"type":"Feature","properties":{"biome":"Tropical rainforest","kind":"tropical","scale":1.15,"seed":987505109},"geometry":{"type":"Point","coordinates":[76.04845,-7.542564]}},{"type":"Feature","properties":{"biome":"Tropical rainforest","kind":"tropical","scale":1.15,"seed":1420687751},"geometry":{"type":"Point","coordinates":[61.444991,-2.308174]}},{"type":"Feature","properties":{"biome":"Tropical rainforest","kind":"tropical","scale":1.15,"seed":224604169},"geometry":{"type":"Point","coordinates":[-64.055008,-1.739902]}},{"type":"Feature","properties":{"biome":"Tropical rainforest","kind":"tropical","scale":1.15,"seed":460596686},"geometry":{"type":"Point","coordinates":[80.272281,-5.267841]}},{"type":"Feature","properties":{"biome":"Tropical rainforest","kind":"tropical","scale":1.15,"seed":45158828},"geometry":{"type":"Point","coordinates":[51.716008,4.048899]}},{"type":"Feature","properties":{"biome":"Tropical rainforest","kind":"tropical","scale":1.15,"seed":1856112020},"geometry":{"type":"Point","coordinates":[76.350825,-8.859924]}},{"type":"Feature","properties":{"biome":"Tropical rainforest","kind":"tropical","scale":1.15,"seed":918004821},"geometry":{"type":"Point","coordinates":[-43.66681,5.409605]}},{"type":"Feature","properties":{"biome":"Tropical seasonal forest","kind":"tropical","scale":1.0,"seed":355743412},"geometry":{"type":"Point","coordinates":[-44.473157,-6.239312]}},{"type":"Feature","properties":{"biome":"Tropical seasonal forest","kind":"tropical","scale":1.0,"seed":520940377},"geometry":{"type":"Point","coordinates":[-20.479536,-5.756904]}},{"type":"Feature","properties":{"biome":"Tropical seasonal forest","kind":"tropical","scale":1.0,"seed":1057423462},"geometry":{"type":"Point","coordinates":[-28.258579,-13.966493]}},{"type":"Feature","properties":{"biome":"Tropical seasonal forest","kind":"tropical","scale":1.0,"seed":1635853559},"geometry":{"type":"Point","coordinates":[-12.038856,10.9712]}},{"type":"Feature","properties":{"biome":"Tropical seasonal forest","kind":"tropical","scale":1.0,"seed":929472011},"geometry":{"type":"Point","coordinates":[-27.181349,-16.589758]}},{"type":"Feature","properties":{"biome":"Tropical seasonal forest","kind":"tropical","scale":1.0,"seed":497764528},"geometry":{"type":"Point","coordinates":[-23.423808,23.464853]}},{"type":"Feature","properties":{"biome":"Tropical seasonal forest","kind":"tropical","scale":1.0,"seed":883350637},"geometry":{"type":"Point","coordinates":[77.050433,-12.873664]}},{"type":"Feature","properties":{"biome":"Tropical seasonal forest","kind":"tropical","scale":1.0,"seed":1672392392},"geometry":{"type":"Point","coordinates":[-36.141531,28.442016]}},{"type":"Feature","properties":{"biome":"Tropical seasonal forest","kind":"tropical","scale":1.0,"seed":556292082},"geometry":{"type":"Point","coordinates":[40.247645,-8.120478]}},{"type":"Feature","properties":{"biome":"Tropical seasonal forest","kind":"tropical","scale":1.0,"seed":874229177},"geometry":{"type":"Point","coordinates":[36.416343,6.293819]}},{"type":"Feature","properties":{"biome":"Tropical seasonal forest","kind":"tropical","scale":1.0,"seed":1033359831},"geometry":{"type":"Point","coordinates":[-72.218378,-1.166511]}},{"type":"Feature","properties":{"biome":"Tropical seasonal forest","kind":"tropical","scale":1.0,"seed":149374268},"geometry":{"type":"Point","coordinates":[-68.822108,11.281706]}},{"type":"Feature","properties":{"biome":"Tropical seasonal forest","kind":"tropical","scale":1.0,"seed":1612634464},"geometry":{"type":"Point","coordinates":[-67.374063,0.804328]}},{"type":"Feature","properties":{"biome":"Tropical seasonal forest","kind":"tropical","scale":1.0,"seed":629131724},"geometry":{"type":"Point","coordinates":[54.898662,18.026003]}},{"type":"Feature","properties":{"biome":"Tropical seasonal forest","kind":"tropical","scale":1.0,"seed":1726512051},"geometry":{"type":"Point","coordinates":[-72.564832,11.507261]}},{"type":"Feature","properties":{"biome":"Tropical seasonal forest","kind":"tropical","scale":1.0,"seed":466896122},"geometry":{"type":"Point","coordinates":[-22.186513,-12.115307]}},{"type":"Feature","properties":{"biome":"Tropical seasonal forest","kind":"tropical","scale":1.0,"seed":258344809},"geometry":{"type":"Point","coordinates":[65.598453,16.508042]}},{"type":"Feature","properties":{"biome":"Tropical seasonal forest","kind":"tropical","scale":1.0,"seed":243141678},"geometry":{"type":"Point","coordinates":[-53.100643,12.870296]}},{"type":"Feature","properties":{"biome":"Tropical seasonal forest","kind":"tropical","scale":1.0,"seed":1900713139},"geometry":{"type":"Point","coordinates":[-25.750701,-15.707867]}},{"type":"Feature","properties":{"biome":"Tropical seasonal forest","kind":"tropical","scale":1.0,"seed":1896745136},"geometry":{"type":"Point","coordinates":[-10.7352,6.399155]}},{"type":"Feature","properties":{"biome":"Tropical seasonal forest","kind":"tropical","scale":1.0,"seed":153441304},"geometry":{"type":"Point","coordinates":[69.759963,-6.90166]}},{"type":"Feature","properties":{"biome":"Tropical seasonal forest","kind":"tropical","scale":1.0,"seed":938064306},"geometry":{"type":"Point","coordinates":[-54.450969,23.190056]}},{"type":"Feature","properties":{"biome":"Tropical seasonal forest","kind":"tropical","scale":1.0,"seed":1072013200},"geometry":{"type":"Point","coordinates":[70.009551,9.454095]}},{"type":"Feature","properties":{"biome":"Tropical seasonal forest","kind":"tropical","scale":1.0,"seed":848934143},"geometry":{"type":"Point","coordinates":[80.931424,2.710459]}},{"type":"Feature","properties":{"biome":"Tropical seasonal forest","kind":"tropical","scale":1.0,"seed":1924380339},"geometry":{"type":"Point","coordinates":[-38.281085,-9.797939]}},{"type":"Feature","properties":{"biome":"Tropical seasonal forest","kind":"tropical","scale":1.0,"seed":1629843733},"geometry":{"type":"Point","coordinates":[-27.639338,22.309395]}},{"type":"Feature","properties":{"biome":"Tropical seasonal forest","kind":"tropical","scale":1.0,"seed":1159593930},"geometry":{"type":"Point","coordinates":[-24.447937,0.415012]}},{"type":"Feature","properties":{"biome":"Tropical seasonal forest","kind":"tropical","scale":1.0,"seed":1792086841},"geometry":{"type":"Point","coordinates":[-19.268629,-6.820125]}},{"type":"Feature","properties":{"biome":"Tropical seasonal forest","kind":"tropical","scale":1.0,"seed":534424175},"geometry":{"type":"Point","coordinates":[76.675617,-11.174358]}},{"type":"Feature","properties":{"biome":"Tropical seasonal forest","kind":"tropical","scale":1.0,"seed":552852857},"geometry":{"type":"Point","coordinates":[-56.023755,-10.963903]}},{"type":"Feature","properties":{"biome":"Tropical seasonal forest","kind":"tropical","scale":1.0,"seed":179319349},"geometry":{"type":"Point","coordinates":[-42.378226,-6.998032]}},{"type":"Feature","properties":{"biome":"Tropical seasonal forest","kind":"tropical","scale":1.0,"seed":718235171},"geometry":{"type":"Point","coordinates":[59.73108,3.680729]}},{"type":"Feature","properties":{"biome":"Tropical seasonal forest","kind":"tropical","scale":1.0,"seed":1544771237},"geometry":{"type":"Point","coordinates":[-25.71369,-2.440122]}},{"type":"Feature","properties":{"biome":"Tropical seasonal forest","kind":"tropical","scale":1.0,"seed":914313659},"geometry":{"type":"Point","coordinates":[-25.789694,3.436577]}},{"type":"Feature","properties":{"biome":"Tropical seasonal forest","kind":"tropical","scale":1.0,"seed":1668525102},"geometry":{"type":"Point","coordinates":[-28.714926,-2.27028]}},{"type":"Feature","properties":{"biome":"Tropical seasonal forest","kind":"tropical","scale":1.0,"seed":1575138550},"geometry":{"type":"Point","coordinates":[-54.064824,9.363054]}},{"type":"Feature","properties":{"biome":"Tropical seasonal forest","kind":"tropical","scale":1.0,"seed":1791240129},"geometry":{"type":"Point","coordinates":[-42.878404,24.439819]}},{"type":"Feature","properties":{"biome":"Tropical seasonal forest","kind":"tropical","scale":1.0,"seed":1640048471},"geometry":{"type":"Point","coordinates":[-53.854832,-10.919306]}},{"type":"Feature","properties":{"biome":"Tropical seasonal forest","kind":"tropical","scale":1.0,"seed":1794619636},"geometry":{"type":"Point","coordinates":[-27.553863,0.759765]}},{"type":"Feature","properties":{"biome":"Tropical seasonal forest","kind":"tropical","scale":1.0,"seed":1577270565},"geometry":{"type":"Point","coordinates":[-22.05615,-14.674681]}},{"type":"Feature","properties":{"biome":"Tropical seasonal forest","kind":"tropical","scale":1.0,"seed":866069222},"geometry":{"type":"Point","coordinates":[58.223413,20.169455]}},{"type":"Feature","properties":{"biome":"Tropical seasonal forest","kind":"tropical","scale":1.0,"seed":878245490},"geometry":{"type":"Point","coordinates":[-57.459784,10.034008]}},{"type":"Feature","properties":{"biome":"Tropical seasonal forest","kind":"tropical","scale":1.0,"seed":431658953},"geometry":{"type":"Point","coordinates":[-63.774309,-4.475111]}},{"type":"Feature","properties":{"biome":"Tropical seasonal forest","kind":"tropical","scale":1.0,"seed":1636253347},"geometry":{"type":"Point","coordinates":[-17.237152,12.315949]}},{"type":"Feature","properties":{"biome":"Tropical seasonal forest","kind":"tropical","scale":1.0,"seed":440792927},"geometry":{"type":"Point","coordinates":[-29.710894,-0.332399]}},{"type":"Feature","properties":{"biome":"Tropical seasonal forest","kind":"tropical","scale":1.0,"seed":1211855664},"geometry":{"type":"Point","coordinates":[-24.787275,4.111061]}},{"type":"Feature","properties":{"biome":"Tropical seasonal forest","kind":"tropical","scale":1.0,"seed":690118175},"geometry":{"type":"Point","coordinates":[-55.167241,10.134223]}},{"type":"Feature","properties":{"biome":"Tropical seasonal forest","kind":"tropical","scale":1.0,"seed":1813454970},"geometry":{"type":"Point","coordinates":[-29.32429,1.79927]}},{"type":"Feature","properties":{"biome":"Tropical seasonal forest","kind":"tropical","scale":1.0,"seed":1488356308},"geometry":{"type":"Point","coordinates":[-19.054443,-9.070651]}},{"type":"Feature","properties":{"biome":"Tropical seasonal forest","kind":"tropical","scale":1.0,"seed":809925823},"geometry":{"type":"Point","coordinates":[-22.19718,8.383773]}},{"type":"Feature","properties":{"biome":"Tropical seasonal forest","kind":"tropical","scale":1.0,"seed":1867805782},"geometry":{"type":"Point","coordinates":[-65.841354,8.84752]}},{"type":"Feature","properties":{"biome":"Tropical seasonal forest","kind":"tropical","scale":1.0,"seed":1611616565},"geometry":{"type":"Point","coordinates":[-72.751453,9.286128]}},{"type":"Feature","properties":{"biome":"Tropical seasonal forest","kind":"tropical","scale":1.0,"seed":1696046133},"geometry":{"type":"Point","coordinates":[-51.72866,14.550598]}},{"type":"Feature","properties":{"biome":"Tropical seasonal forest","kind":"tropical","scale":1.0,"seed":852428150},"geometry":{"type":"Point","coordinates":[38.891633,9.095239]}},{"type":"Feature","properties":{"biome":"Tropical seasonal forest","kind":"tropical","scale":1.0,"seed":997464717},"geometry":{"type":"Point","coordinates":[41.574835,-9.971769]}}]}